NORAD_CAT_ID,OBJECT_NAME,OBJECT_TYPE,EPOCH,MEAN_MOTION,ECCENTRICITY,INCLINATION,RA_OF_ASC_NODE,ARG_OF_PERICENTER,MEAN_ANOMALY,BSTAR,MEAN_MOTION_DOT,MEAN_MOTION_DDOT,TLE_LINE0,TLE_LINE1,TLE_LINE2,SEMIMAJOR_AXIS,PERIOD,APOGEE,PERIGEE,DECAYED
53158.0,STARLINK-4054,PAYLOAD,2023-07-26 02:15:55,15.08842666,0.0001303,53.2162,142.9327,99.3674,260.7466,9.8862e-05,1.286e-05,0.0,0 STARLINK-4054,1 53158U 22083AC  23207.09438852  .00001286  00000-0  98862-4 0  9994,2 53158  53.2162 142.9327 0001303  99.3674 260.7466 15.08842666 56790,6917.872,95.437,540.639,538.836,0.0
53158.0,STARLINK-4054,PAYLOAD,2023-07-27 05:17:27,15.0885197,0.000148,53.2174,137.8809,95.7068,264.4093,0.00021612,3.154e-05,0.0,0 STARLINK-4054,1 53158U 22083AC  23208.22045693  .00003154  00000-0  21612-3 0  9991,2 53158  53.2174 137.8809 0001480  95.7068 264.4093 15.08851970 57598,6917.844,95.437,540.733,538.685,0.0
53158.0,STARLINK-4054,PAYLOAD,2023-07-28 00:22:07,15.08827414,0.0001667,53.2186,134.3141,108.6297,251.4876,-1.5519e-05,-5.35e-06,0.0,0 STARLINK-4054,1 53158U 22083AC  23209.01536213 -.00000535  00000-0 -15519-4 0  9994,2 53158  53.2186 134.3141 0001667 108.6297 251.4876 15.08827414 57712,6917.919,95.438,540.937,538.631,0.0
53158.0,STARLINK-4054,PAYLOAD,2023-07-28 03:32:53,15.08829352,0.0001453,53.2176,133.7178,101.0714,259.0442,-9.5971e-06,-4.41e-06,0.0,0 STARLINK-4054,1 53158U 22083AC  23209.14784197 -.00000441  00000-0 -95971-5 0  9991,2 53158  53.2176 133.7178 0001453 101.0714 259.0442 15.08829352 57107,6917.913,95.438,540.783,538.773,0.0
53158.0,STARLINK-4054,PAYLOAD,2023-07-28 19:26:44,15.08841126,0.0001226,53.2158,130.7431,79.723,280.3901,-2.3732e-05,-6.66e-06,0.0,0 STARLINK-4054,1 53158U 22083AC  23209.81023494 -.00000666  00000-0 -23732-4 0  9995,2 53158  53.2158 130.7431 0001226  79.7230 280.3901 15.08841126 57838,6917.877,95.437,540.59,538.894,0.0
53158.0,STARLINK-4054,PAYLOAD,2023-07-29 04:59:02,15.08854024,0.0001268,53.216,128.959,79.2613,280.8522,0.00021405,3.122e-05,0.0,0 STARLINK-4054,1 53158U 22083AC  23210.20766851  .00003122  00000-0  21405-3 0  9993,2 53158  53.2160 128.9590 0001268  79.2613 280.8522 15.08854024 57893,6917.838,95.437,540.58,538.825,0.0
53158.0,STARLINK-4054,PAYLOAD,2023-07-30 00:03:40,15.08835906,0.0001511,53.2155,125.3835,127.29,232.823,3.9083e-05,3.34e-06,0.0,0 STARLINK-4054,1 53158U 22083AC  23211.00255775  .00000334  00000-0  39083-4 0  9994,2 53158  53.2155 125.3835 0001511 127.2900 232.8230 15.08835906 58010,6917.893,95.438,540.803,538.713,0.0
53158.0,STARLINK-4054,PAYLOAD,2023-07-30 03:14:27,15.08833157,0.0001308,53.2164,124.7959,80.4948,279.6192,0.00011561,1.552e-05,0.0,0 STARLINK-4054,1 53158U 22083AC  23211.13504453  .00001552  00000-0  11561-3 0  9991,2 53158  53.2164 124.7959 0001308  80.4948 279.6192 15.08833157 58030,6917.901,95.438,540.671,538.861,0.0
53158.0,STARLINK-4054,PAYLOAD,2023-07-31 01:29:50,15.08855194,0.0001232,53.216,120.6311,93.768,266.3453,0.00049863,7.66e-05,0.0,0 STARLINK-4054,1 53158U 22083AC  23212.06239577  .00007660  00000-0  49863-3 0  9998,2 53158  53.2160 120.6311 0001232  93.7680 266.3453 15.08855194 58172,6917.834,95.437,540.551,538.847,0.0
53158.0,STARLINK-4054,PAYLOAD,2023-07-31 17:23:42,15.08852002,0.0001828,53.2157,117.6625,79.8318,280.288,0.00039995,6.085e-05,0.0,0 STARLINK-4054,1 53158U 22083AC  23212.72479817  .00006085  00000-0  39995-3 0  9999,2 53158  53.2157 117.6625 0001828  79.8318 280.2880 15.08852002 58271,6917.844,95.437,540.973,538.444,0.0
53158.0,STARLINK-4054,PAYLOAD,2023-08-01 17:14:29,15.08836566,0.0001157,53.2153,113.1975,106.7699,253.342,0.00044916,6.867e-05,0.0,0 STARLINK-4054,1 53158U 22083AC  23213.71840162  .00006867  00000-0  44916-3 0  9991,2 53158  53.2153 113.1975 0001157 106.7699 253.3420 15.08836566 58428,6917.891,95.438,540.556,538.955,0.0
53158.0,STARLINK-4054,PAYLOAD,2023-08-02 23:26:49,15.08852629,0.0001294,53.2162,107.549,83.3132,276.8007,0.00040935,6.235e-05,0.0,0 STARLINK-4054,1 53158U 22083AC  23214.97695933  .00006235  00000-0  40935-3 0  9990,2 53158  53.2162 107.5490 0001294  83.3132 276.8007 15.08852629 58611,6917.842,95.437,540.602,538.812,0.0
53158.0,STARLINK-4054,PAYLOAD,2023-08-04 02:28:22,15.08842593,0.0001228,53.2161,102.493,101.6716,258.4414,0.0001059,1.398e-05,0.0,0 STARLINK-4054,1 53158U 22083AC  23216.10304151  .00001398  00000-0  10590-3 0  9995,2 53158  53.2161 102.4930 0001228 101.6716 258.4414 15.08842593 58787,6917.872,95.437,540.587,538.888,0.0
53158.0,STARLINK-4054,PAYLOAD,2023-08-06 00:34:32,15.08862668,0.0001045,53.2159,93.8694,96.3222,263.7889,0.00043049,6.574e-05,0.0,0 STARLINK-4054,1 53158U 22083AC  23218.02398955  .00006574  00000-0  43049-3 0  9999,2 53158  53.2159  93.8694 0001045  96.3222 263.7889 15.08862668 59076,6917.811,95.436,540.399,538.953,0.0
53158.0,STARLINK-4054,PAYLOAD,2023-08-06 08:31:28,15.08843396,0.0001268,53.2164,92.3814,85.3237,274.79,2.1094e-05,4.8e-07,0.0,0 STARLINK-4054,1 53158U 22083AC  23218.35519539  .00000048  00000-0  21094-4 0  9995,2 53158  53.2164  92.3814 0001268  85.3237 274.7900 15.08843396 59120,6917.87,95.437,540.612,538.858,0.0
53158.0,STARLINK-4054,PAYLOAD,2023-08-07 02:00:45,15.08818458,0.0001165,53.2172,89.1107,78.7839,281.3284,-0.00028637,-4.84e-05,0.0,0 STARLINK-4054,1 53158U 22083AC  23219.08385629 -.00004840  00000-0 -28637-3 0  9992,2 53158  53.2172  89.1107 0001165  78.7839 281.3284 15.08818458 59230,6917.946,95.439,540.617,539.005,0.0
53158.0,STARLINK-4054,PAYLOAD,2023-08-07 17:54:36,15.08833225,0.0001069,53.2169,86.1379,79.1677,280.9436,-7.4987e-05,-1.481e-05,0.0,0 STARLINK-4054,1 53158U 22083AC  23219.74625631 -.00001481  00000-0 -74987-4 0  9993,2 53158  53.2169  86.1379 0001069  79.1677 280.9436 15.08833225 59336,6917.901,95.438,540.506,539.027,0.0
53158.0,STARLINK-4054,PAYLOAD,2023-08-08 08:13:05,15.08857725,8.77e-05,53.2158,83.4615,83.0667,277.0425,0.0013533,0.00021326,0.0,0 STARLINK-4054,1 53158U 22083AC  23220.34241978  .00021326  00000-0  13533-2 0  9995,2 53158  53.2158  83.4615 0000877  83.0667 277.0425 15.08857725 59422,6917.826,95.436,540.298,539.085,0.0
53158.0,STARLINK-4054,PAYLOAD,2023-08-09 08:03:50,15.08873372,7.51e-05,53.2157,79.0017,102.2435,257.8642,0.00049135,7.548e-05,0.0,0 STARLINK-4054,1 53158U 22083AC  23221.33599919  .00007548  00000-0  49135-3 0  9994,2 53158  53.2157  79.0017 0000751 102.2435 257.8642 15.08873372 59575,6917.778,95.435,540.163,539.124,0.0
53158.0,STARLINK-4054,PAYLOAD,2023-08-09 20:46:55,15.08846433,0.0001291,53.2158,76.6235,99.3946,260.7192,0.00092554,0.00014475,0.0,0 STARLINK-4054,1 53158U 22083AC  23221.86592296  .00014475  00000-0  92554-3 0  9993,2 53158  53.2158  76.6235 0001291  99.3946 260.7192 15.08846433 59654,6917.861,95.437,540.619,538.833,0.0
53158.0,STARLINK-4054,PAYLOAD,2023-08-10 07:54:37,15.08840738,5.89e-05,53.2158,74.5419,113.215,246.8904,0.001092,0.00017134,0.0,0 STARLINK-4054,1 53158U 22083AC  23222.32960543  .00017134  00000-0  10920-2 0  9990,2 53158  53.2158  74.5419 0000589 113.2150 246.8904 15.08840738 59723,6917.878,95.438,540.151,539.336,0.0
53158.0,STARLINK-4054,PAYLOAD,2023-08-10 17:26:57,15.08836754,0.000111,53.2152,72.7573,112.6775,247.4335,0.00058013,8.956e-05,0.0,0 STARLINK-4054,1 53158U 22083AC  23222.72704914  .00008956  00000-0  58013-3 0  9990,2 53158  53.2152  72.7573 0001110 112.6775 247.4335 15.08836754 59789,6917.89,95.438,540.523,538.987,0.0
53158.0,STARLINK-4054,PAYLOAD,2023-08-11 18:53:07,15.08838638,0.0001057,53.2168,67.997,108.1467,251.9641,0.00020244,2.935e-05,0.0,0 STARLINK-4054,1 53158U 22083AC  23223.78689222  .00002935  00000-0  20244-3 0  9997,2 53158  53.2168  67.9970 0001057 108.1467 251.9641 15.08838638 59942,6917.885,95.438,540.481,539.018,0.0
53158.0,STARLINK-4054,PAYLOAD,2023-08-13 05:51:36,15.08848856,8.97e-05,53.2171,61.4556,90.4031,269.7064,0.00023931,3.524e-05,0.0,0 STARLINK-4054,1 53158U 22083AC  23225.24416674  .00003524  00000-0  23931-3 0  9990,2 53158  53.2171  61.4556 0000897  90.4031 269.7064 15.08848856 60161,6917.853,95.437,540.339,539.098,0.0
53158.0,STARLINK-4054,PAYLOAD,2023-08-13 18:34:42,15.0883492,8.88e-05,53.217,59.0779,103.3912,256.718,1.1279e-05,-1.08e-06,0.0,0 STARLINK-4054,1 53158U 22083AC  23225.77409767 -.00000108  00000-0  11279-4 0  9992,2 53158  53.2170  59.0779 0000888 103.3912 256.7180 15.08834920 60243,6917.896,95.438,540.375,539.147,0.0
53158.0,STARLINK-4054,PAYLOAD,2023-08-14 15:14:42,15.08877541,6.72e-05,53.217,55.2127,80.7599,279.3469,-0.00050365,-8.302e-05,0.0,0 STARLINK-4054,1 53158U 22083AC  23226.63520955 -.00008302  00000-0 -50365-3 0  9994,2 53158  53.2170  55.2127 0000672  80.7599 279.3469 15.08877541 60379,6917.766,95.435,540.096,539.166,0.0
53158.0,STARLINK-4054,PAYLOAD,2023-08-15 07:08:33,15.08838124,9.44e-05,53.2161,52.2391,89.6206,270.4895,0.00021931,3.204e-05,0.0,0 STARLINK-4054,1 53158U 22083AC  23227.29761556  .00003204  00000-0  21931-3 0  9992,2 53158  53.2161  52.2391 0000944  89.6206 270.4895 15.08838124 60474,6917.886,95.438,540.404,539.098,0.0
53158.0,STARLINK-4054,PAYLOAD,2023-08-15 21:27:01,15.08851485,9.32e-05,53.2161,49.5622,88.6961,271.4138,0.00031579,4.743e-05,0.0,0 STARLINK-4054,1 53158U 22083AC  23227.89376970  .00004743  00000-0  31579-3 0  9998,2 53158  53.2161  49.5622 0000932  88.6961 271.4138 15.08851485 60560,6917.845,95.437,540.355,539.066,0.0
53158.0,STARLINK-4054,PAYLOAD,2023-08-16 05:23:57,15.08842097,0.0001008,53.216,48.0748,84.6103,275.5004,0.00010593,1.399e-05,0.0,0 STARLINK-4054,1 53158U 22083AC  23228.22497287  .00001399  00000-0  10593-3 0  9998,2 53158  53.2160  48.0748 0001008  84.6103 275.5004 15.08842097 60613,6917.874,95.437,540.436,539.042,0.0
53158.0,STARLINK-4054,PAYLOAD,2023-08-17 17:57:49,15.0884641,0.0001059,53.2169,41.2359,95.1242,264.9871,8.5437e-05,1.072e-05,0.0,0 STARLINK-4054,1 53158U 22083AC  23229.74849031  .00001072  00000-0  85437-4 0  9992,2 53158  53.2169  41.2359 0001059  95.1242 264.9871 15.08846410 60844,6917.861,95.437,540.458,538.993,0.0
